{"type": "FeatureCollection", "features": [ {"type": "Feature", "properties": {"norad_id": 29986, "name": "FENGYUN 1C DEB", "group": "fengyun-1c-debris", "lat": 9.417459857009964, "lon": 60.43044177027771, "alt_km": 782.120937418721, "timestamp": "2025-12-19T18:58:41.860960+00:00", "meta": {"OBJECT_NAME": "FENGYUN 1C DEB", "OBJECT_ID": "1999-025LL", "EPOCH": "2025-12-19T03:56:38.662368", "MEAN_MOTION": 14.29265102, "ECCENTRICITY": 0.00227699, "INCLINATION": 99.3984, "RA_OF_ASC_NODE": 61.3297, "ARG_OF_PERICENTER": 338.0886, "MEAN_ANOMALY": 50.0354, "EPHEMERIS_TYPE": 0, "CLASSIFICATION_TYPE": "U", "NORAD_CAT_ID": 29986, "ELEMENT_SET_NO": 999, "REV_AT_EPOCH": 97599, "BSTAR": 0.0011906503, "MEAN_MOTION_DOT": 2.986e-05, "MEAN_MOTION_DDOT": 0}, "tle": {"line1": "1 29986U 99025LL  25353.16433637  .00002986  00000+0  11907-2 0  9994", "line2": "2 29986  99.3984  61.3297 0022769 338.0886  50.0354 14.29265102975996"}}, "geometry": {"type": "Point", "coordinates": [60.43044177027771, 9.417459857009964]}}, {"type": "Feature", "properties": {"norad_id": 29987, "name": "FENGYUN 1C DEB", "group": "fengyun-1c-debris", "lat": -45.84850944699581, "lon": -104.9622942974705, "alt_km": 860.2036673697157, "timestamp": "2025-12-19T18:58:41.860971+00:00", "meta": {"OBJECT_NAME": "FENGYUN 1C DEB", "OBJECT_ID": "1999-025LM", "EPOCH": "2025-12-19T06:11:01.334112", "MEAN_MOTION": 14.14597796, "ECCENTRICITY": 0.00789524, "INCLINATION": 98.8983, "RA_OF_ASC_NODE": 245.2198, "ARG_OF_PERICENTER": 214.6539, "MEAN_ANOMALY": 264.599, "EPHEMERIS_TYPE": 0, "CLASSIFICATION_TYPE": "U", "NORAD_CAT_ID": 29987, "ELEMENT_SET_NO": 999, "REV_AT_EPOCH": 96465, "BSTAR": 0.0016008374, "MEAN_MOTION_DOT": 3.125e-05, "MEAN_MOTION_DDOT": 0}, "tle": {"line1": "1 29987U 99025LM  25353.25765433  .00003125  00000+0  16008-2 0  9990", "line2": "2 29987  98.8983 245.2198 0078952 214.6539 264.5990 14.14597796964652"}}, "geometry": {"type": "Point", "coordinates": [-104.9622942974705, -45.84850944699581]}}, {"type": "Feature", "properties": {"norad_id": 29988, "name": "FENGYUN 1C DEB", "group": "fengyun-1c-debris", "lat": 15.719194601887835, "lon": -79.60502064739508, "alt_km": 808.0401380914163, "timestamp": "2025-12-19T18:58:41.860981+00:00", "meta": {"OBJECT_NAME": "FENGYUN 1C DEB", "OBJECT_ID": "1999-025LN", "EPOCH": "2025-12-19T06:43:59.887200", "MEAN_MOTION": 14.50458866, "ECCENTRICITY": 0.01202081, "INCLINATION": 98.6957, "RA_OF_ASC_NODE": 97.3994, "ARG_OF_PERICENTER": 358.3694, "MEAN_ANOMALY": 22.7164, "EPHEMERIS_TYPE": 0, "CLASSIFICATION_TYPE": "U", "NORAD_CAT_ID": 29988, "ELEMENT_SET_NO": 999, "REV_AT_EPOCH": 98162, "BSTAR": 0.001026963, "MEAN_MOTION_DOT": 4.355e-05, "MEAN_MOTION_DDOT": 0}, "tle": {"line1": "1 29988U 99025LN  25353.28055425  .00004355  00000+0  10270-2 0  9998", "line2": "2 29988  98.6957  97.3994 0120208 358.3694  22.7164 14.50458866981629"}}, "geometry": {"type": "Point", "coordinates": [-79.60502064739508, 15.719194601887835]}}, {"type": "Feature", "properties": {"norad_id": 29989, "name": "FENGYUN 1C DEB", "group": "fengyun-1c-debris", "lat": -72.33995443060323, "lon": 1.0212680550647237, "alt_km": 876.405773533821, "timestamp": "2025-12-19T18:58:41.860991+00:00", "meta": {"OBJECT_NAME": "FENGYUN 1C DEB", "OBJECT_ID": "1999-025LP", "EPOCH": "2025-12-19T04:22:00.372000", "MEAN_MOTION": 14.15822941, "ECCENTRICITY": 0.0123556, "INCLINATION": 98.6683, "RA_OF_ASC_NODE": 331.7982, "ARG_OF_PERICENTER": 177.1614, "MEAN_ANOMALY": 245.6255, "EPHEMERIS_TYPE": 0, "CLASSIFICATION_TYPE": "U", "NORAD_CAT_ID": 29989, "ELEMENT_SET_NO": 999, "REV_AT_EPOCH": 97702, "BSTAR": 0.0001025586, "MEAN_MOTION_DOT": 1.75e-06, "MEAN_MOTION_DDOT": 0}, "tle": {"line1": "1 29989U 99025LP  25353.18194875  .00000175  00000+0  10256-3 0  9992", "line2": "2 29989  98.6683 331.7982 0123556 177.1614 245.6255 14.15822941977022"}}, "geometry": {"type": "Point", "coordinates": [1.0212680550647237, -72.33995443060323]}}, {"type": "Feature", "properties": {"norad_id": 29992, "name": "FENGYUN 1C DEB", "group": "fengyun-1c-debris", "lat": 39.009238108282126, "lon": -18.415502427032138, "alt_km": 870.3137385823375, "timestamp": "2025-12-19T18:58:41.861002+00:00", "meta": {"OBJECT_NAME": "FENGYUN 1C DEB", "OBJECT_ID": "1999-025LS", "EPOCH": "2025-12-19T06:57:27.389376", "MEAN_MOTION": 14.1161385, "ECCENTRICITY": 0.00891904, "INCLINATION": 98.7301, "RA_OF_ASC_NODE": 348.2473, "ARG_OF_PERICENTER": 149.1141, "MEAN_ANOMALY": 227.637, "EPHEMERIS_TYPE": 0, "CLASSIFICATION_TYPE": "U", "NORAD_CAT_ID": 29992, "ELEMENT_SET_NO": 999, "REV_AT_EPOCH": 97480, "BSTAR": 9.1881217e-05, "MEAN_MOTION_DOT": 1.31e-06, "MEAN_MOTION_DDOT": 0}, "tle": {"line1": "1 29992U 99025LS  25353.28990034  .00000131  00000+0  91881-4 0  9994", "line2": "2 29992  98.7301 348.2473 0089190 149.1141 227.6370 14.11613850974805"}}, "geometry": {"type": "Point", "coordinates": [-18.415502427032138, 39.009238108282126]}}, {"type": "Feature", "properties": {"norad_id": 29993, "name": "FENGYUN 1C DEB", "group": "fengyun-1c-debris", "lat": -79.90295850155911, "lon": 90.70196444482237, "alt_km": 846.8534782381475, "timestamp": "2025-12-19T18:58:41.861012+00:00", "meta": {"OBJECT_NAME": "FENGYUN 1C DEB", "OBJECT_ID": "1999-025LT", "EPOCH": "2025-12-19T02:19:33.252096", "MEAN_MOTION": 14.08150738, "ECCENTRICITY": 0.00382942, "INCLINATION": 98.7925, "RA_OF_ASC_NODE": 29.6669, "ARG_OF_PERICENTER": 296.3803, "MEAN_ANOMALY": 63.3438, "EPHEMERIS_TYPE": 0, "CLASSIFICATION_TYPE": "U", "NORAD_CAT_ID": 29993, "ELEMENT_SET_NO": 999, "REV_AT_EPOCH": 97259, "BSTAR": 0.00013149832, "MEAN_MOTION_DOT": 1.82e-06, "MEAN_MOTION_DDOT": 0}, "tle": {"line1": "1 29993U 99025LT  25353.09691264  .00000182  00000+0  13150-3 0  9995", "line2": "2 29993  98.7925  29.6669 0038294 296.3803  63.3438 14.08150738972595"}}, "geometry": {"type": "Point", "coordinates": [90.70196444482237, -79.90295850155911]}}, {"type": "Feature", "properties": {"norad_id": 29994, "name": "FENGYUN 1C DEB", "group": "fengyun-1c-debris", "lat": 65.10112781793278, "lon": 6.262360803731322, "alt_km": 934.4737064847277, "timestamp": "2025-12-19T18:58:41.861023+00:00", "meta": {"OBJECT_NAME": "FENGYUN 1C DEB", "OBJECT_ID": "1999-025LU", "EPOCH": "2025-12-19T01:48:04.184352", "MEAN_MOTION": 14.02645304, "ECCENTRICITY": 0.0129742, "INCLINATION": 98.8278, "RA_OF_ASC_NODE": 25.1291, "ARG_OF_PERICENTER": 195.8748, "MEAN_ANOMALY": 219.968, "EPHEMERIS_TYPE": 0, "CLASSIFICATION_TYPE": "U", "NORAD_CAT_ID": 29994, "ELEMENT_SET_NO": 999, "REV_AT_EPOCH": 96815, "BSTAR": -1.8141969e-05, "MEAN_MOTION_DOT": -7.3e-07, "MEAN_MOTION_DDOT": 0}, "tle": {"line1": "1 29994U 99025LU  25353.07504843 -.00000073  00000+0 -18142-4 0  9998", "line2": "2 29994  98.8278  25.1291 0129742 195.8748 219.9680 14.02645304968157"}}, "geometry": {"type": "Point", "coordinates": [6.262360803731322, 65.10112781793278]}}, {"type": "Feature", "properties": {"norad_id": 29996, "name": "FENGYUN 1C DEB", "group": "fengyun-1c-debris", "lat": 59.757713489968644, "lon": 15.071848758652624, "alt_km": 761.1303575849597, "timestamp": "2025-12-19T18:58:41.861033+00:00", "meta": {"OBJECT_NAME": "FENGYUN 1C DEB", "OBJECT_ID": "1999-025LW", "EPOCH": "2025-12-19T01:47:33.791424", "MEAN_MOTION": 14.09458214, "ECCENTRICITY": 0.01311391, "INCLINATION": 99.303, "RA_OF_ASC_NODE": 30.6614, "ARG_OF_PERICENTER": 70.2805, "MEAN_ANOMALY": 319.6867, "EPHEMERIS_TYPE": 0, "CLASSIFICATION_TYPE": "U", "NORAD_CAT_ID": 29996, "ELEMENT_SET_NO": 999, "REV_AT_EPOCH": 96226, "BSTAR": 0.0013222133, "MEAN_MOTION_DOT": 2.455e-05, "MEAN_MOTION_DDOT": 0}, "tle": {"line1": "1 29996U 99025LW  25353.07469666  .00002455  00000+0  13222-2 0  9999", "line2": "2 29996  99.3030  30.6614 0131139  70.2805 319.6867 14.09458214962264"}}, "geometry": {"type": "Point", "coordinates": [15.071848758652624, 59.757713489968644]}}, {"type": "Feature", "properties": {"norad_id": 29997, "name": "FENGYUN 1C DEB", "group": "fengyun-1c-debris", "lat": -36.35556175457027, "lon": 177.43419645096338, "alt_km": 897.4759116841824, "timestamp": "2025-12-19T18:58:41.861043+00:00", "meta": {"OBJECT_NAME": "FENGYUN 1C DEB", "OBJECT_ID": "1999-025LX", "EPOCH": "2025-12-19T06:13:09.054048", "MEAN_MOTION": 14.00893666, "ECCENTRICITY": 0.00801556, "INCLINATION": 98.882, "RA_OF_ASC_NODE": 3.5267, "ARG_OF_PERICENTER": 309.2184, "MEAN_ANOMALY": 108.8221, "EPHEMERIS_TYPE": 0, "CLASSIFICATION_TYPE": "U", "NORAD_CAT_ID": 29997, "ELEMENT_SET_NO": 999, "REV_AT_EPOCH": 96481, "BSTAR": 0.00069445299, "MEAN_MOTION_DOT": 1.024e-05, "MEAN_MOTION_DDOT": 0}, "tle": {"line1": "1 29997U 99025LX  25353.25913257  .00001024  00000+0  69445-3 0  9990", "line2": "2 29997  98.8820   3.5267 0080155 309.2184 108.8221 14.00893666964815"}}, "geometry": {"type": "Point", "coordinates": [177.43419645096338, -36.35556175457027]}}, {"type": "Feature", "properties": {"norad_id": 29998, "name": "FENGYUN 1C DEB", "group": "fengyun-1c-debris", "lat": 80.68821131957979, "lon": -35.45890080424739, "alt_km": 792.6281195587717, "timestamp": "2025-12-19T18:58:41.861053+00:00", "meta": {"OBJECT_NAME": "FENGYUN 1C DEB", "OBJECT_ID": "1999-025LY", "EPOCH": "2025-12-19T03:25:47.522496", "MEAN_MOTION": 14.28571504, "ECCENTRICITY": 0.00050306, "INCLINATION": 99.3059, "RA_OF_ASC_NODE": 53.9613, "ARG_OF_PERICENTER": 278.37, "MEAN_ANOMALY": 81.6909, "EPHEMERIS_TYPE": 0, "CLASSIFICATION_TYPE": "U", "NORAD_CAT_ID": 29998, "ELEMENT_SET_NO": 999, "REV_AT_EPOCH": 97966, "BSTAR": 0.00068582971, "MEAN_MOTION_DOT": 1.671e-05, "MEAN_MOTION_DDOT": 0}, "tle": {"line1": "1 29998U 99025LY  25353.14291114  .00001671  00000+0  68583-3 0  9990", "line2": "2 29998  99.3059  53.9613 0005030 278.3700  81.6909 14.28571504979663"}}, "geometry": {"type": "Point", "coordinates": [-35.45890080424739, 80.68821131957979]}}]}